107P/Wilson-Harrington,e,2.7992,266.7783,95.4399,2.624470,0.2318150,0.63165885,42.7335,02/25.0/2023,2000,g  9.0,4.0
# From MPEC 2022-P82
108P/Ciffreo,e,11.4362,50.2827,354.4520,3.739812,0.1362792,0.55601857,45.3606,08/09.0/2022,2000,g  8.0,12.0
# From MPEC 2022-P82
108P/Ciffreo,e,11.4352,50.3025,354.4522,3.740933,0.1362179,0.55610166,72.5739,02/25.0/2023,2000,g  8.0,12.0
# From  105, 420
109P/Swift-Tuttle,e,113.4265,139.4444,153.0014,26.31694,0.0073005,0.96358925,359.9392,12/04.0/1992,2000,g  4.0,6.0
# From  105, 420
109P/Swift-Tuttle,e,13.7889,139.1979,153.1100,26.19852,0.0073500,0.96248660,81.0775,02/25.0/2023,2000,g  4.0,6.0
# From MPEC 2023-KD6
110P/Hartley,e,11.7047,287.5173,167.4641,3.603852,0.1440634,0.31870005,71.2551,02/25.0/2023,2000,g  1.0,12.0
# From MPC 75718
111P/Helin-Roman-Crockett,e,4.2288,89.7945,3.3783,4.160381,0.1161461,0.10963039,359.6915,01/28.0/2013,2000,g  5.0,8.0
# From MPC 75718
111P/Helin-Roman-Crockett,e,4.2256,89.8268,1.0199,4.150896,0.1165444,0.10684676,72.0936,02/25.0/2023,2000,g  5.0,8.0
# From MPEC 2021-S45
112P/Urata-Niijima,e,24.1966,31.8353,21.4823,3.525592,0.1488867,0.58991369,76.3795,07/05.0/2021,2000,g 14.0,6.0
# From MPEC 2021-S45
112P/Urata-Niijima,e,24.2110,31.8365,21.4689,3.524416,0.1489612,0.59057366,165.6868,02/25.0/2023,2000,g 14.0,6.0
# From MPEC 2021-F20
112P/Urata-Niijima,e,24.2043,31.7938,21.5884,3.521009,0.1491775,0.59069707,2.2577,10/07.0/2026,2000,g 15.3,4.0
# From MPEC 2023-HD1
113P/Spitaler,e,5.2894,306.6787,115.5437,3.692019,0.1389339,0.41985363,37.3015,02/25.0/2023,2000,g 14.9,4.0
# From MPEC 2023-A50
114P/Wiseman-Skiff,e,18.2893,271.0251,172.7450,3.542881,0.1477982,0.55545066,168.1207,02/25.0/2023,2000,g 11.5,6.0
# From MPEC 2023-J29
115P/Maury,e,11.6772,176.0072,121.0034,4.272162,0.1116176,0.51795849,105.0178,02/25.0/2023,2000,g 10.5,6.0
# From MPEC 2023-R20
116P/Wild,e,3.6034,20.9766,173.2348,3.488440,0.1512716,0.37031222,64.0276,09/13.0/2023,2000,g  2.5,10.0
# From MPEC 2023-RF3
116P/Wild,e,3.6034,20.9766,173.2348,3.488440,0.1512716,0.37031222,64.0276,09/13.0/2023,2000,g  2.5,10.0
# From MPEC 2023-R20
117P/Helin-Roman-Alu,e,8.7044,58.8228,223.2062,4.087778,0.1192540,0.25595663,51.4040,09/13.0/2023,2000,g  2.5,8.0
# From MPEC 2021-F20
117P/Helin-Roman-Alu,e,8.6349,58.0971,223.4472,4.162843,0.1160430,0.23859710,0.9755,12/05.0/2030,2000,g 10.8,4.0
# From MPEC 2023-N01
118P/Shoemaker-Levy,e,10.0916,142.0972,314.8429,3.346719,0.1609812,0.45349074,14.9149,02/25.0/2023,2000,g 12.0,4.0
# From MPEC 2023-M14
119P/Parker-Hartley,e,7.3932,104.5710,322.0845,3.804924,0.1327960,0.38825154,26.1521,02/25.0/2023,2000,g 12.5,4.0
# From MPEC 2022-CN4
120P/Mueller,e,8.4899,358.6722,36.5958,3.962967,0.1249319,0.37468942,32.3240,01/21.0/2022,2000,g 12.0,4.0
# From MPEC 2022-CN4
120P/Mueller,e,8.4902,358.7230,36.6281,3.965788,0.1247986,0.37487864,82.1705,02/25.0/2023,2000,g 12.0,4.0
# From MPEC 2023-D41
121P/Shoemaker-Holt,e,20.1650,94.1151,11.6266,4.583859,0.1004285,0.18619958,347.5943,02/25.0/2023,2000,g  6.5,8.0
# From MPEC 2023-D41
121P/Shoemaker-Holt,e,20.1650,94.1151,11.6266,4.583859,0.1004285,0.18619958,347.5943,02/25.0/2023,2000,g  6.5,8.0
# From MPC 75718
122P/de Vico,e,85.3909,79.6188,12.9771,17.68270,0.0132550,0.96273769,0.0527,10/10.0/1995,2000,g  7.5,5.2
# From MPC 75718
122P/de Vico,e,85.3990,79.6170,13.0186,17.62148,0.0133242,0.96259843,133.6182,02/25.0/2023,2000,g  7.5,5.2
# From MPEC 2021-F20
123P/West-Hartley,e,15.2768,45.9254,104.0735,3.880168,0.1289521,0.44441554,191.5474,02/25.0/2023,2000,g 12.2,4.0
# From MPEC 2021-F20
123P/West-Hartley,e,15.2814,45.8477,103.8764,3.887488,0.1285880,0.44469221,1.9453,10/07.0/2026,2000,g 12.2,4.0
# From MPEC 2022-YN2
124P/Mrkos,e,31.6114,0.1209,185.2681,3.365950,0.1596035,0.48966616,166.3768,02/25.0/2023,2000,g 13.5,2.8
# From MPEC 2021-F20
124P/Mrkos,e,31.4059,359.9469,185.1219,3.377158,0.1588097,0.48626547,357.6812,06/09.0/2026,2000,g 15.2,4.0
# From MPEC 2022-YB4
125P/Spacewatch,e,9.9860,153.1510,87.1738,3.128131,0.1781462,0.51207995,292.9565,02/25.0/2023,2000,g 13.0,6.0
# From MPEC 2023-RF3
126P/IRAS,e,45.8734,357.8702,356.5925,5.637363,0.0736360,0.69657599,5.1308,09/13.0/2023,2000,g  6.0,8.0
# From MPEC 2023-R20
126P/IRAS,e,45.8734,357.8701,356.5926,5.637312,0.0736370,0.69657337,5.1309,09/13.0/2023,2000,g  6.0,8.0
# From MPEC 2023-D41
127P/Holt-Olmstead,e,14.3011,13.6044,6.2686,3.452379,0.1536478,0.35952602,30.5132,02/25.0/2023,2000,g 11.0,6.0
# From MPEC 2023-D41
127P/Holt-Olmstead,e,14.3011,13.6044,6.2686,3.452379,0.1536478,0.35952602,30.5132,02/25.0/2023,2000,g 11.0,6.0
# From MPC 89014
128P/Shoemaker-Holt,e,4.3646,214.2926,210.5779,4.501739,0.1031890,0.32118014,359.6098,01/07.0/2017,2000,g  8.5,4.0
# From MPC 89014
128P/Shoemaker-Holt,e,4.3702,214.3382,210.2685,4.488029,0.1036622,0.32193341,231.7273,02/25.0/2023,2000,g  8.5,4.0
# From MPEC 2023-M14
129P/Shoemaker-Levy,e,3.4424,184.8611,307.4362,4.288864,0.1109662,0.08498618,9.6567,02/25.0/2023,2000,g 11.0,4.0
# From MPEC 2023-M14
130P/McNaught-Hughes,e,6.0630,70.1819,246.1048,3.382876,0.1584072,0.46112310,294.2922,02/25.0/2023,2000,g 10.0,6.0
# From MPC102101
131P/Mueller,e,7.3559,214.2187,179.5236,3.685354,0.1393109,0.34386896,358.1361,12/25.0/2011,2000,g 11.0,4.0
# From MPC102101
131P/Mueller,e,7.3600,214.1762,179.0467,3.678529,0.1396988,0.34474651,208.2775,02/25.0/2023,2000,g 11.0,4.0
# From MPEC 2022-TD3
132P/Helin-Roman-Alu,e,5.3827,173.9952,216.3701,3.886714,0.1286264,0.56467940,34.5814,08/09.0/2022,2000,g 11.0,6.0
# From MPEC 2022-TD3
132P/Helin-Roman-Alu,e,5.3830,174.0324,216.3613,3.888228,0.1285513,0.56472836,60.2650,02/25.0/2023,2000,g 11.0,6.0
# From MPC 94676
133P/Elst-Pizarro,e,1.3868,160.1495,132.1625,3.160662,0.1754030,0.16157588,357.8985,01/28.0/2013,2000,g 15.4,2.0
# From MPC 94676
133P/Elst-Pizarro,e,1.3897,160.1015,131.9000,3.165493,0.1750016,0.15637273,282.9642,02/25.0/2023,2000,g 15.4,2.0
# From MPC 89012
134P/Kowal-Vavrova,e,4.3488,202.1206,18.5842,6.231283,0.0633633,0.58735109,0.0954,05/23.0/2014,2000,g 11.5,4.0
# From MPC 89012
134P/Kowal-Vavrova,e,4.3352,202.0142,18.8657,6.264893,0.0628541,0.58500009,201.8408,02/25.0/2023,2000,g 11.5,4.0
# From MPEC 2022-OB6
135P/Shoemaker-Levy,e,6.0634,213.0263,22.3230,3.800342,0.1330363,0.29477179,16.4491,08/09.0/2022,2000,g  7.0,8.0
# From MPEC 2022-OB6
135P/Shoemaker-Levy,e,6.0634,213.0322,22.3223,3.799750,0.1330674,0.29461839,43.0667,02/25.0/2023,2000,g  7.0,8.0
# From MPEC 2022-K19
136P/Mueller,e,9.4259,137.5078,225.0372,4.189055,0.1149556,0.29340919,282.0877,02/25.0/2023,2000,g 11.0,4.0
# From MPEC 2020-W26
136P/Mueller,e,9.4275,137.4211,225.2757,4.184727,0.1151340,0.29305564,0.2006,01/05.0/2025,2000,g 11.0,4.0
# From MPEC 2023-J29
137P/Shoemaker-Levy,e,4.8582,232.9476,141.1610,4.521506,0.1025131,0.57384976,157.1620,02/25.0/2023,2000,g 11.0,4.0
# From MPEC 2016-U66
138P/Shoemaker-Levy,e,10.0896,309.3313,95.6143,3.623847,0.1428727,0.53011231,359.1768,04/27.0/2019,2000,g 15.0,6.0
# From MPEC 2016-U66
138P/Shoemaker-Levy,e,10.0928,309.3323,95.5449,3.620174,0.1430902,0.53138875,199.2997,02/25.0/2023,2000,g 15.0,6.0
# From MPEC 2020-HN5
139P/Vaisala-Oterma,e,2.3333,242.2005,165.8026,4.525134,0.1023899,0.24627438,92.5080,05/31.0/2020,2000,g  9.5,4.0
# From MPEC 2020-HN5
139P/Vaisala-Oterma,e,2.3360,242.1773,165.7361,4.518372,0.1026198,0.24795609,195.0341,02/25.0/2023,2000,g  9.5,4.0
# From MPEC 2015-E14
140P/Bowell-Skiff,e,3.8213,343.3952,172.9411,6.453469,0.0601193,0.69198419,359.8417,08/06.0/2015,2000,g 11.5,6.0
# From MPEC 2015-E14
140P/Bowell-Skiff,e,3.8842,343.3776,172.5415,6.413898,0.0606766,0.69399522,167.6579,02/25.0/2023,2000,g 11.5,6.0
# From MPEC 2022-K19
141P/Machholz,e,13.9483,241.8247,153.5714,3.057599,0.1843458,0.73606567,147.5530,02/25.0/2023,2000,g 12.0,12.0
# From MPEC 2021-AJ0
141P/Machholz,e,13.9609,241.7691,153.6500,3.056383,0.1844558,0.73580750,1.2655,04/30.0/2026,2000,g 14.7,4.0
# From MPEC 2015-KD9
141P-A/Machholz,e,13.9483,153.5916,241.8192,3.057755,0.1843317,0.73604846,147.5102,02/25.0/2023,2000,g 12.0,12.0
# From MPC 24216
141P-B/Machholz,e,13.9921,153.6672,241.7084,3.056160,0.1844760,0.73580512,148.8138,02/25.0/2023,2000,g  9.0,4.0
# From MPC 37026
141P-D/Machholz,e,13.8404,153.3186,242.0668,3.066163,0.1835740,0.73700809,143.7569,02/25.0/2023,2000,g  9.0,4.0
# From MPEC 2015-R12
141P-E/Machholz,e,12.8152,246.1856,149.2667,3.012914,0.1884620,0.75023267,359.9529,09/19.0/1994,2000,g  9.0,4.0
# From MPEC 2015-R12
141P-F/Machholz,e,12.7898,246.1881,149.2374,3.010224,0.1887147,0.75000946,359.9630,09/19.0/1994,2000,g  9.0,4.0
# From MPEC 2015-R12
141P-G/Machholz,e,12.8259,246.3146,149.0784,3.005818,0.1891298,0.74964304,359.9802,09/19.0/1994,2000,g  9.0,4.0
# From MPC 95735
141P-H/Machholz,e,12.8431,246.0900,149.4500,3.008012,0.1889230,0.74682218,359.9270,08/24.0/2015,2000,g 18.5,4.0
# From MPEC 2022-SU8
141P-I/Machholz,e,13.9503,241.8131,153.5567,3.048175,0.1852014,0.73517305,111.3107,08/09.0/2022,2000,g 17.5,4.0
# From MPEC 2022-SU8
141P-I/Machholz,e,13.9481,153.5458,241.8294,3.048247,0.1851948,0.73527312,148.3142,02/25.0/2023,2000,g 17.5,4.0
# From MPEC 2021-Y10
142P/Ge-Wang,e,12.2515,175.9335,173.9681,4.998884,0.0881850,0.49725117,22.3386,01/21.0/2022,2000,g  8.5,6.0
# From MPEC 2021-Y10
142P/Ge-Wang,e,12.2514,175.9655,173.9929,5.000461,0.0881432,0.49707034,57.5816,02/25.0/2023,2000,g  8.5,6.0
# From MPEC 2023-J29
143P/Kowal-Mrkos,e,4.7285,244.8839,320.3655,4.270425,0.1116856,0.41404160,196.2437,02/25.0/2023,2000,g 13.5,2.0
# From MPEC 2023-RF3
144P/Kushida,e,3.9314,242.9278,216.3202,3.832873,0.1313462,0.63505140,342.2988,09/13.0/2023,2000,g  8.5,8.0
# From MPC108598
145P/Shoemaker-Levy,e,11.2597,26.8101,10.3673,4.146470,0.1167310,0.54078641,0.3619,09/04.0/2017,2000,g 13.5,4.0
# From MPC108598
145P/Shoemaker-Levy,e,11.2790,26.8207,10.2513,4.135440,0.1171984,0.54242197,234.4023,02/25.0/2023,2000,g 13.5,4.0
# From MPC100284
146P/Shoemaker-LINEAR,e,23.0725,53.4544,316.9784,4.040235,0.1213652,0.64603787,358.8920,06/21.0/2016,2000,g 15.0,4.0
# From MPC100284
